{"type": "FeatureCollection", "features": [ {"type": "Feature", "properties": {"norad_id": 29999, "name": "FENGYUN 1C DEB", "group": "fengyun-1c-debris", "lat": 80.36896462910593, "lon": -132.08890751843413, "alt_km": 682.5499292582817, "timestamp": "2025-12-27T06:41:31.199597+00:00", "meta": {"OBJECT_NAME": "FENGYUN 1C DEB", "OBJECT_ID": "1999-025LZ", "EPOCH": "2025-12-26T21:54:11.905920", "MEAN_MOTION": 14.20157309, "ECCENTRICITY": 0.01897822, "INCLINATION": 98.5777, "RA_OF_ASC_NODE": 344.7523, "ARG_OF_PERICENTER": 85.7343, "MEAN_ANOMALY": 297.142, "EPHEMERIS_TYPE": 0, "CLASSIFICATION_TYPE": "U", "NORAD_CAT_ID": 29999, "ELEMENT_SET_NO": 999, "REV_AT_EPOCH": 97925, "BSTAR": 0.00039068047, "MEAN_MOTION_DOT": 9.56e-06, "MEAN_MOTION_DDOT": 0}, "tle": {"line1": "1 29999U 99025LZ  25360.91263780  .00000956  00000+0  39068-3 0  9993", "line2": "2 29999  98.5777 344.7523 0189782  85.7343 297.1420 14.20157309979255"}}, "geometry": {"type": "Point", "coordinates": [-132.08890751843413, 80.36896462910593]}}, {"type": "Feature", "properties": {"norad_id": 30001, "name": "FENGYUN 1C DEB", "group": "fengyun-1c-debris", "lat": -67.14735416070185, "lon": 98.93877774334113, "alt_km": 783.9109043945191, "timestamp": "2025-12-27T06:41:31.199608+00:00", "meta": {"OBJECT_NAME": "FENGYUN 1C DEB", "OBJECT_ID": "1999-025MA", "EPOCH": "2025-12-26T11:03:05.444352", "MEAN_MOTION": 14.38785853, "ECCENTRICITY": 0.0035951, "INCLINATION": 98.9582, "RA_OF_ASC_NODE": 76.1049, "ARG_OF_PERICENTER": 57.3841, "MEAN_ANOMALY": 317.74, "EPHEMERIS_TYPE": 0, "CLASSIFICATION_TYPE": "U", "NORAD_CAT_ID": 30001, "ELEMENT_SET_NO": 999, "REV_AT_EPOCH": 97629, "BSTAR": 0.0024412, "MEAN_MOTION_DOT": 7.519e-05, "MEAN_MOTION_DDOT": 0}, "tle": {"line1": "1 30001U 99025MA  25360.46047968  .00007519  00000+0  24412-2 0  9995", "line2": "2 30001  98.9582  76.1049 0035951  57.3841 317.7400 14.38785853976292"}}, "geometry": {"type": "Point", "coordinates": [98.93877774334113, -67.14735416070185]}}, {"type": "Feature", "properties": {"norad_id": 30003, "name": "FENGYUN 1C DEB", "group": "fengyun-1c-debris", "lat": -27.320239907262376, "lon": 151.390073894451, "alt_km": 1010.671707204956, "timestamp": "2025-12-27T06:41:31.199618+00:00", "meta": {"OBJECT_NAME": "FENGYUN 1C DEB", "OBJECT_ID": "1999-025MC", "EPOCH": "2025-12-26T23:06:38.822112", "MEAN_MOTION": 13.85636438, "ECCENTRICITY": 0.01436517, "INCLINATION": 99.5785, "RA_OF_ASC_NODE": 336.0715, "ARG_OF_PERICENTER": 82.318, "MEAN_ANOMALY": 349.093, "EPHEMERIS_TYPE": 0, "CLASSIFICATION_TYPE": "U", "NORAD_CAT_ID": 30003, "ELEMENT_SET_NO": 999, "REV_AT_EPOCH": 95685, "BSTAR": 0.00037087205, "MEAN_MOTION_DOT": 4.14e-06, "MEAN_MOTION_DDOT": 0}, "tle": {"line1": "1 30003U 99025MC  25360.96294933  .00000414  00000+0  37087-3 0  9998", "line2": "2 30003  99.5785 336.0715 0143651  82.3180 349.0930 13.85636438956856"}}, "geometry": {"type": "Point", "coordinates": [151.390073894451, -27.320239907262376]}}, {"type": "Feature", "properties": {"norad_id": 30004, "name": "FENGYUN 1C DEB", "group": "fengyun-1c-debris", "lat": -64.14116976079023, "lon": -16.648987102195218, "alt_km": 826.7406827706509, "timestamp": "2025-12-27T06:41:31.199628+00:00", "meta": {"OBJECT_NAME": "FENGYUN 1C DEB", "OBJECT_ID": "1999-025MD", "EPOCH": "2025-12-26T17:57:59.255136", "MEAN_MOTION": 14.17099842, "ECCENTRICITY": 0.0038455, "INCLINATION": 99.2236, "RA_OF_ASC_NODE": 182.389, "ARG_OF_PERICENTER": 303.1693, "MEAN_ANOMALY": 119.3711, "EPHEMERIS_TYPE": 0, "CLASSIFICATION_TYPE": "U", "NORAD_CAT_ID": 30004, "ELEMENT_SET_NO": 999, "REV_AT_EPOCH": 97505, "BSTAR": 0.00076392604, "MEAN_MOTION_DOT": 1.501e-05, "MEAN_MOTION_DDOT": 0}, "tle": {"line1": "1 30004U 99025MD  25360.74860249  .00001501  00000+0  76393-3 0  9995", "line2": "2 30004  99.2236 182.3890 0038455 303.1693 119.3711 14.17099842975055"}}, "geometry": {"type": "Point", "coordinates": [-16.648987102195218, -64.14116976079023]}}, {"type": "Feature", "properties": {"norad_id": 30005, "name": "FENGYUN 1C DEB", "group": "fengyun-1c-debris", "lat": -71.77564965711834, "lon": -7.789256058601864, "alt_km": 1235.0741717116998, "timestamp": "2025-12-27T06:41:31.199638+00:00", "meta": {"OBJECT_NAME": "FENGYUN 1C DEB", "OBJECT_ID": "1999-025ME", "EPOCH": "2025-12-26T20:24:19.966176", "MEAN_MOTION": 13.5225557, "ECCENTRICITY": 0.03472991, "INCLINATION": 99.3041, "RA_OF_ASC_NODE": 321.9484, "ARG_OF_PERICENTER": 57.7117, "MEAN_ANOMALY": 305.7168, "EPHEMERIS_TYPE": 0, "CLASSIFICATION_TYPE": "U", "NORAD_CAT_ID": 30005, "ELEMENT_SET_NO": 999, "REV_AT_EPOCH": 93137, "BSTAR": 0.0016362206, "MEAN_MOTION_DOT": 1.538e-05, "MEAN_MOTION_DDOT": 0}, "tle": {"line1": "1 30005U 99025ME  25360.85023109  .00001538  00000+0  16362-2 0  9993", "line2": "2 30005  99.3041 321.9484 0347299  57.7117 305.7168 13.52255570931377"}}, "geometry": {"type": "Point", "coordinates": [-7.789256058601864, -71.77564965711834]}}, {"type": "Feature", "properties": {"norad_id": 30007, "name": "FENGYUN 1C DEB", "group": "fengyun-1c-debris", "lat": 21.871569118766914, "lon": -100.42139501362854, "alt_km": 775.0233754462142, "timestamp": "2025-12-27T06:41:31.199648+00:00", "meta": {"OBJECT_NAME": "FENGYUN 1C DEB", "OBJECT_ID": "1999-025MG", "EPOCH": "2025-12-26T07:35:53.052000", "MEAN_MOTION": 14.25528842, "ECCENTRICITY": 0.0065159, "INCLINATION": 99.1779, "RA_OF_ASC_NODE": 262.2931, "ARG_OF_PERICENTER": 336.7995, "MEAN_ANOMALY": 149.504, "EPHEMERIS_TYPE": 0, "CLASSIFICATION_TYPE": "U", "NORAD_CAT_ID": 30007, "ELEMENT_SET_NO": 999, "REV_AT_EPOCH": 97549, "BSTAR": 0.0019063, "MEAN_MOTION_DOT": 4.563e-05, "MEAN_MOTION_DDOT": 0}, "tle": {"line1": "1 30007U 99025MG  25360.31658625  .00004563  00000+0  19063-2 0  9995", "line2": "2 30007  99.1779 262.2931 0065159 336.7995 149.5040 14.25528842975495"}}, "geometry": {"type": "Point", "coordinates": [-100.42139501362854, 21.871569118766914]}}, {"type": "Feature", "properties": {"norad_id": 30008, "name": "FENGYUN 1C DEB", "group": "fengyun-1c-debris", "lat": -76.51383619278785, "lon": 96.18353036450495, "alt_km": 690.2910268408477, "timestamp": "2025-12-27T06:41:31.199658+00:00", "meta": {"OBJECT_NAME": "FENGYUN 1C DEB", "OBJECT_ID": "1999-025MH", "EPOCH": "2025-12-26T21:38:24.537696", "MEAN_MOTION": 14.66595038, "ECCENTRICITY": 0.00397225, "INCLINATION": 99.3704, "RA_OF_ASC_NODE": 319.2679, "ARG_OF_PERICENTER": 147.8708, "MEAN_ANOMALY": 281.7828, "EPHEMERIS_TYPE": 0, "CLASSIFICATION_TYPE": "U", "NORAD_CAT_ID": 30008, "ELEMENT_SET_NO": 999, "REV_AT_EPOCH": 99267, "BSTAR": 0.0025270354, "MEAN_MOTION_DOT": 0.00014163, "MEAN_MOTION_DDOT": 0}, "tle": {"line1": "1 30008U 99025MH  25360.90167289  .00014163  00000+0  25270-2 0  9996", "line2": "2 30008  99.3704 319.2679 0039722 147.8708 281.7828 14.66595038992676"}}, "geometry": {"type": "Point", "coordinates": [96.18353036450495, -76.51383619278785]}}, {"type": "Feature", "properties": {"norad_id": 30009, "name": "FENGYUN 1C DEB", "group": "fengyun-1c-debris", "lat": -18.599322331027125, "lon": 59.167138803772, "alt_km": 849.9544383490702, "timestamp": "2025-12-27T06:41:31.199668+00:00", "meta": {"OBJECT_NAME": "FENGYUN 1C DEB", "OBJECT_ID": "1999-025MJ", "EPOCH": "2025-12-26T17:06:24.793344", "MEAN_MOTION": 14.04898193, "ECCENTRICITY": 0.00645585, "INCLINATION": 99.0142, "RA_OF_ASC_NODE": 55.5428, "ARG_OF_PERICENTER": 295.4697, "MEAN_ANOMALY": 63.9801, "EPHEMERIS_TYPE": 0, "CLASSIFICATION_TYPE": "U", "NORAD_CAT_ID": 30009, "ELEMENT_SET_NO": 999, "REV_AT_EPOCH": 96679, "BSTAR": 0.0010160525, "MEAN_MOTION_DOT": 1.618e-05, "MEAN_MOTION_DDOT": 0}, "tle": {"line1": "1 30009U 99025MJ  25360.71278696  .00001618  00000+0  10161-2 0  9995", "line2": "2 30009  99.0142  55.5428 0064558 295.4697  63.9801 14.04898193966799"}}, "geometry": {"type": "Point", "coordinates": [59.167138803772, -18.599322331027125]}}, {"type": "Feature", "properties": {"norad_id": 30010, "name": "FENGYUN 1C DEB", "group": "fengyun-1c-debris", "lat": 36.023898822078756, "lon": 20.591156789320017, "alt_km": 757.8192373294014, "timestamp": "2025-12-27T06:41:31.199678+00:00", "meta": {"OBJECT_NAME": "FENGYUN 1C DEB", "OBJECT_ID": "1999-025MK", "EPOCH": "2025-12-26T18:30:47.371104", "MEAN_MOTION": 14.24996556, "ECCENTRICITY": 0.00732897, "INCLINATION": 99.0695, "RA_OF_ASC_NODE": 193.3969, "ARG_OF_PERICENTER": 168.9592, "MEAN_ANOMALY": 252.9761, "EPHEMERIS_TYPE": 0, "CLASSIFICATION_TYPE": "U", "NORAD_CAT_ID": 30010, "ELEMENT_SET_NO": 999, "REV_AT_EPOCH": 98460, "BSTAR": 0.00013846025, "MEAN_MOTION_DOT": 2.86e-06, "MEAN_MOTION_DDOT": 0}, "tle": {"line1": "1 30010U 99025MK  25360.77138161  .00000286  00000+0  13846-3 0  9999", "line2": "2 30010  99.0695 193.3969 0073289 168.9592 252.9761 14.24996556984603"}}, "geometry": {"type": "Point", "coordinates": [20.591156789320017, 36.023898822078756]}}, {"type": "Feature", "properties": {"norad_id": 30012, "name": "FENGYUN 1C DEB", "group": "fengyun-1c-debris", "lat": -28.22399320290598, "lon": -130.48154582157636, "alt_km": 967.6344966901443, "timestamp": "2025-12-27T06:41:31.199688+00:00", "meta": {"OBJECT_NAME": "FENGYUN 1C DEB", "OBJECT_ID": "1999-025MM", "EPOCH": "2025-12-26T18:08:48.236640", "MEAN_MOTION": 13.85775219, "ECCENTRICITY": 0.01372358, "INCLINATION": 99.4624, "RA_OF_ASC_NODE": 54.1262, "ARG_OF_PERICENTER": 108.5815, "MEAN_ANOMALY": 12.0686, "EPHEMERIS_TYPE": 0, "CLASSIFICATION_TYPE": "U", "NORAD_CAT_ID": 30012, "ELEMENT_SET_NO": 999, "REV_AT_EPOCH": 95742, "BSTAR": 0.00026379113, "MEAN_MOTION_DOT": 2.81e-06, "MEAN_MOTION_DDOT": 0}, "tle": {"line1": "1 30012U 99025MM  25360.75611385  .00000281  00000+0  26379-3 0  9993", "line2": "2 30012  99.4624  54.1262 0137235 108.5815  12.0686 13.85775219957429"}}, "geometry": {"type": "Point", "coordinates": [-130.48154582157636, -28.22399320290598]}}]}